[{"OBJECT_NAME":"STARLINK-34897","OBJECT_ID":"2025-176Q","EPOCH":"2026-03-09T12:48:58.027680","MEAN_MOTION":15.30186523,"ECCENTRICITY":0.0001153,"INCLINATION":53.1581,"RA_OF_ASC_NODE":153.667,"ARG_OF_PERICENTER":62.1896,"MEAN_ANOMALY":297.9221,"EPHEMERIS_TYPE":0,"CLASSIFICATION_TYPE":"U","NORAD_CAT_ID":65212,"ELEMENT_SET_NO":999,"REV_AT_EPOCH":3309,"BSTAR":0.0010109101,"MEAN_MOTION_DOT":0.00029688,"MEAN_MOTION_DDOT":0},{"OBJECT_NAME":"FENGYUN 1C DEB","OBJECT_ID":"1999-025CMP","EPOCH":"2026-03-08T08:37:00.789888","MEAN_MOTION":14.96815474,"ECCENTRICITY":0.01497126,"INCLINATION":98.9176,"RA_OF_ASC_NODE":115.7276,"ARG_OF_PERICENTER":148.4975,"MEAN_ANOMALY":212.5316,"EPHEMERIS_TYPE":0,"CLASSIFICATION_TYPE":"U","NORAD_CAT_ID":31938,"ELEMENT_SET_NO":999,"REV_AT_EPOCH":409,"BSTAR":0.00073670691,"MEAN_MOTION_DOT":0.00010536,"MEAN_MOTION_DDOT":0}]
